     2.100          NAVIGATION                              RINEX VERSION / TYPE
fic2rin                                 08/29/2016 00:06:19 PGM / RUN BY / DATE
                                                            END OF HEADER
17 16  8 28 12  0  0.0 -.203056726605D-03  .341060513165D-12  .000000000000D+00
     .250000000000D+02 -.620312500000D+02  .452197407266D-08  .113517199706D+01
    -.332668423653D-05  .111084388336D-01  .336952507496D-05  .515373659325D+04
     .432000000000D+05 -.176951289177D-06  .136420453659D+01 -.745058059692D-08
     .977031314876D+00  .328843750000D+03 -.192404533114D+01 -.841999358367D-08
    -.291797868838D-09  .100000000000D+01  .191200000000D+04  .000000000000D+00
     .240000000000D+01  .000000000000D+00 -.107102096081D-07  .250000000000D+02
     .360060000000D+05  .400000000000D+01
18 16  8 28 12  0  0.0  .551946926862D-03  .386535248253D-11  .000000000000D+00
     .680000000000D+02  .282812500000D+02  .517807283037D-08  .269889753900D+01
     .140815973282D-05  .172554688761D-01  .772997736931D-05  .515370801544D+04
     .432000000000D+05  .152736902237D-06 -.290629269066D+01 -.102445483208D-06
     .925476272133D+00  .206625000000D+03 -.186216736057D+01 -.805069248651D-08
     .427874965567D-09  .100000000000D+01  .191200000000D+04  .000000000000D+00
     .240000000000D+01  .000000000000D+00 -.111758708954D-07  .680000000000D+02
     .360060000000D+05  .400000000000D+01
19 16  8 28 12  0  0.0 -.523723661900D-03  .341060513165D-12  .000000000000D+00
     .240000000000D+02 -.753437500000D+02  .448982987658D-08 -.203089784780D+01
    -.387430191040D-05  .106123785954D-01  .286474823952D-05  .515363018990D+04
     .432000000000D+05  .173225998878D-06  .141276319395D+01 -.391155481339D-07
     .974170341579D+00  .329093750000D+03  .851960069957D+00 -.817855495536D-08
    -.120004998690D-09  .100000000000D+01  .191200000000D+04  .000000000000D+00
     .240000000000D+01  .000000000000D+00 -.149011611938D-07  .240000000000D+02
     .360060000000D+05  .400000000000D+01
20 16  8 28 12  0  0.0  .432530418038D-03  .204636307899D-11  .000000000000D+00
     .740000000000D+02  .297812500000D+02  .525271879682D-08  .268608856477D+00
     .173784792423D-05  .466865336057D-02  .863894820213D-05  .515378543282D+04
     .432000000000D+05 -.167638063431D-06 -.295794359111D+01 -.279396772385D-07
     .926793922447D+00  .198343750000D+03  .142513121688D+01 -.840535011657D-08
     .402516766439D-09  .100000000000D+01  .191200000000D+04  .000000000000D+00
     .240000000000D+01  .000000000000D+00 -.838190317154D-08  .740000000000D+02
     .360060000000D+05  .400000000000D+01
21 16  8 28 12  0  0.0 -.531151425093D-03 -.568434188608D-12  .000000000000D+00
     .980000000000D+02 -.859062500000D+02  .458090509880D-08 -.262775082524D+01
    -.445544719696D-05  .233781615971D-01  .104587525129D-04  .515356748390D+04
     .432000000000D+05  .247731804848D-06  .233566894640D+01 -.931322574615D-08
     .937341160959D+00  .158281250000D+03 -.176488562118D+01 -.767031949960D-08
     .439304013061D-10  .100000000000D+01  .191200000000D+04  .000000000000D+00
     .240000000000D+01  .000000000000D+00 -.977888703346D-08  .980000000000D+02
     .360060000000D+05  .400000000000D+01
22 16  8 28 12  0  0.0  .260095112026D-03 -.989075488178D-11  .000000000000D+00
     .750000000000D+02  .204375000000D+02  .542022577416D-08  .638410872513D+00
     .119395554066D-05  .751276419032D-02  .847689807415D-05  .515373855400D+04
     .432000000000D+05 -.143423676491D-06 -.290583889640D+01 -.707805156708D-07
     .923409773072D+00  .199968750000D+03 -.187144041646D+01 -.850535428215D-08
     .363229415677D-09  .100000000000D+01  .191200000000D+04  .000000000000D+00
     .240000000000D+01  .000000000000D+00 -.176951289177D-07  .750000000000D+02
     .360060000000D+05  .400000000000D+01
23 16  8 28 12  0  0.0 -.187817960978D-03 -.136424205266D-11  .000000000000D+00
     .200000000000D+02 -.103750000000D+02  .521414576153D-08 -.153559383062D+00
    -.396743416786D-06  .111618823139D-01  .603310763836D-05  .515361558342D+04
     .432000000000D+05  .135973095894D-06 -.182698066976D+01  .141561031342D-06
     .945159186817D+00  .255500000000D+03 -.253525546414D+01 -.855178478759D-08
    -.176435920693D-09  .100000000000D+01  .191200000000D+04  .000000000000D+00
     .240000000000D+01  .000000000000D+00 -.200234353542D-07  .200000000000D+02
     .360060000000D+05  .400000000000D+01
24 16  8 28 12  0  0.0 -.223270617425D-04 -.568434188608D-12  .000000000000D+00
     .150000000000D+02  .260937500000D+02  .465197948790D-08 -.685809687458D+00
     .144354999065D-05  .457665382419D-02  .102762132883D-04  .515373766136D+04
     .432000000000D+05  .113621354103D-06 -.801436516122D+00  .298023223877D-07
     .948401247347D+00  .175750000000D+03  .402087419915D+00 -.808569394447D-08
    -.219294848796D-09  .100000000000D+01  .191200000000D+04  .000000000000D+00
     .240000000000D+01  .000000000000D+00  .232830643654D-08  .150000000000D+02
     .360060000000D+05  .400000000000D+01
25 16  8 28 12  0  0.0 -.235316343606D-03 -.693489710102D-11  .000000000000D+00
     .760000000000D+02  .937187500000D+02  .428017828661D-08 -.280277999842D+01
     .479072332382D-05  .557610869873D-02  .518187880516D-05  .515370817566D+04
     .432000000000D+05  .670552253723D-07  .272917103407D+00 -.126659870148D-06
     .978565456585D+00  .288312500000D+03  .792050065070D+00 -.800926218935D-08
     .288940606965D-09  .100000000000D+01  .191200000000D+04  .000000000000D+00
     .240000000000D+01  .000000000000D+00  .558793544769D-08  .760000000000D+02
     .360060000000D+05  .400000000000D+01
26 16  8 28 12  0  0.0 -.457958783954D-03 -.807176547823D-11  .000000000000D+00
     .460000000000D+02  .988750000000D+02  .476877006699D-08  .293048847794D+01
     .522285699844D-05  .925123225898D-03  .494532287121D-05  .515357040024D+04
     .432000000000D+05 -.558793544769D-07  .262315698890D+00 -.540167093277D-07
     .960486081518D+00  .284125000000D+03 -.232223147769D-01 -.831534636755D-08
     .340728478423D-09  .100000000000D+01  .191200000000D+04  .000000000000D+00
     .240000000000D+01  .000000000000D+00  .698491930962D-08  .460000000000D+02
     .360060000000D+05  .400000000000D+01
28 16  8 28 12  0  0.0  .547842588276D-03  .284217094304D-11  .000000000000D+00
     .890000000000D+02  .891875000000D+02  .401266714369D-08  .198435066038D+01
     .434182584286D-05  .198187652277D-01  .537931919098D-05  .515363059044D+04
     .432000000000D+05  .204890966415D-06  .348543989159D+00 -.284984707832D-06
     .989615442987D+00  .286781250000D+03 -.161266261671D+01 -.771853579371D-08
     .261082303697D-09  .100000000000D+01  .191200000000D+04  .000000000000D+00
     .485000000000D+01  .000000000000D+00 -.107102096081D-07  .890000000000D+02
     .360060000000D+05  .400000000000D+01
29 16  8 28 12  0  0.0  .652527436614D-03 -.102318153949D-11  .000000000000D+00
     .930000000000D+02 -.709375000000D+02  .436553898508D-08 -.314111916845D+01
    -.388361513615D-05  .618453719653D-03  .368058681488D-05  .515375949097D+04
     .432000000000D+05 -.782310962677D-07  .137403031219D+01  .130385160446D-07
     .978037387046D+00  .315187500000D+03  .109423892161D+00 -.815855412224D-08
    -.302512600864D-09  .100000000000D+01  .191200000000D+04  .000000000000D+00
     .240000000000D+01  .000000000000D+00 -.102445483208D-07  .930000000000D+02
     .360060000000D+05  .400000000000D+01
30 16  8 28 12  0  0.0  .147715676576D-03  .181898940355D-11  .000000000000D+00
     .700000000000D+02  .428437500000D+02  .452054544172D-08 -.158211027043D+01
     .194646418095D-05  .240194750950D-02  .114683061838D-04  .515378404999D+04
     .432000000000D+05 -.931322574615D-08 -.709869756902D+00 -.223517417908D-07
     .951178462732D+00  .153718750000D+03  .312049983551D+01 -.797926093967D-08
    -.138220043134D-09  .100000000000D+01  .191200000000D+04  .000000000000D+00
     .240000000000D+01  .000000000000D+00  .372529029846D-08  .700000000000D+02
     .360060000000D+05  .400000000000D+01
31 16  8 28 12  0  0.0  .251102261245D-03 -.204636307899D-11  .000000000000D+00
     .300000000000D+02  .595625000000D+02  .412945772278D-08 -.184284249948D+01
     .288523733616D-05  .827578885946D-02  .116303563118D-04  .515354583549D+04
     .432000000000D+05 -.149011611938D-06 -.742919041011D+00 -.119209289551D-06
     .970183079357D+00  .165718750000D+03 -.384141920870D+00 -.777568103118D-08
    -.122505102829D-09  .100000000000D+01  .191200000000D+04  .000000000000D+00
     .240000000000D+01  .000000000000D+00 -.135041773319D-07  .300000000000D+02
     .360060000000D+05  .400000000000D+01
32 16  8 28 12  0  0.0 -.947872176766D-04 -.133013600134D-10  .000000000000D+00
     .660000000000D+02 -.990625000000D+01  .479269963518D-08  .152169194247D+01
    -.530853867531D-06  .657921307720D-03  .615045428276D-05  .515363210297D+04
     .432000000000D+05 -.149011611938D-07 -.182949627005D+01  .149011611938D-07
     .958810421503D+00  .255031250000D+03 -.231326556000D+01 -.816891169653D-08
    -.219652006531D-09  .100000000000D+01  .191200000000D+04  .000000000000D+00
     .240000000000D+01  .000000000000D+00  .931322574615D-09  .660000000000D+02
     .360060000000D+05  .400000000000D+01
 1 16  8 28 14  0  0.0  .319550745189D-04  .136424205266D-11  .000000000000D+00
     .810000000000D+02 -.862187500000D+02  .431517974456D-08  .789220180246D-01
    -.448711216450D-05  .585628359113D-02  .107474625111D-04  .515364305687D+04
     .504000000000D+05  .931322574615D-08  .237183036051D+01  .707805156708D-07
     .965305349140D+00  .170093750000D+03  .532047097760D+00 -.798854704076D-08
    -.985755346381D-10  .100000000000D+01  .191200000000D+04  .000000000000D+00
     .240000000000D+01  .000000000000D+00  .512227416039D-08  .810000000000D+02
     .432060000000D+05  .400000000000D+01
